{
  "type": "FeatureCollection",
  "features": [
    {
      "type": "Feature",
      "properties": {
        "norad_id": 41890,
        "name": "CYGFM07",
        "group": "weather",
        "lat": 32.541524834387104,
        "lon": 45.8519378569046,
        "alt_km": 413.5934563017181,
        "timestamp": "2025-12-26T09:30:53.270170+00:00",
        "meta_object_name": "CYGFM07",
        "meta_object_id": "2016-078G",
        "meta_epoch": "2025-12-26T04:24:26.717184",
        "meta_mean_motion": 15.50579165,
        "meta_eccentricity": 0.0009164,
        "meta_inclination": 34.9476,
        "meta_ra_of_asc_node": 293.2724,
        "meta_arg_of_pericenter": 329.5262,
        "meta_mean_anomaly": 30.4927,
        "meta_ephemeris_type": 0,
        "meta_classification_type": "U",
        "meta_norad_cat_id": 41890,
        "meta_element_set_no": 999,
        "meta_rev_at_epoch": 50204,
        "meta_bstar": 0.00037516,
        "meta_mean_motion_dot": 0.0002219,
        "meta_mean_motion_ddot": 0,
        "tle_line1": "1 41890U 16078G   25360.18364256  .00022190  00000+0  37516-3 0  9993",
        "tle_line2": "2 41890  34.9476 293.2724 0009164 329.5262  30.4927 15.50579165502045"
      },
      "geometry": {
        "type": "Point",
        "coordinates": [
          45.8519378569046,
          32.541524834387104
        ]
      }
    },
    {
      "type": "Feature",
      "properties": {
        "norad_id": 41891,
        "name": "CYGFM03",
        "group": "weather",
        "lat": -29.88774776720937,
        "lon": -121.59744627463354,
        "alt_km": 411.29664669984504,
        "timestamp": "2025-12-26T09:30:53.270181+00:00",
        "meta_object_name": "CYGFM03",
        "meta_object_id": "2016-078H",
        "meta_epoch": "2025-12-26T03:35:34.895616",
        "meta_mean_motion": 15.50470512,
        "meta_eccentricity": 0.0009079,
        "meta_inclination": 34.9429,
        "meta_ra_of_asc_node": 295.4226,
        "meta_arg_of_pericenter": 316.1176,
        "meta_mean_anomaly": 43.8824,
        "meta_ephemeris_type": 0,
        "meta_classification_type": "U",
        "meta_norad_cat_id": 41891,
        "meta_element_set_no": 999,
        "meta_rev_at_epoch": 50201,
        "meta_bstar": 0.00038336,
        "meta_mean_motion_dot": 0.00022589,
        "meta_mean_motion_ddot": 0,
        "tle_line1": "1 41891U 16078H   25360.14970944  .00022589  00000+0  38336-3 0  9990",
        "tle_line2": "2 41891  34.9429 295.4226 0009079 316.1176  43.8824 15.50470512502013"
      },
      "geometry": {
        "type": "Point",
        "coordinates": [
          -121.59744627463354,
          -29.88774776720937
        ]
      }
    },
    {
      "type": "Feature",
      "properties": {
        "norad_id": 43010,
        "name": "FENGYUN 3D",
        "group": "weather",
        "lat": -71.4980916206742,
        "lon": -4.848531974682405,
        "alt_km": 834.5678249655275,
        "timestamp": "2025-12-26T09:30:53.270191+00:00",
        "meta_object_name": "FENGYUN 3D",
        "meta_object_id": "2017-072A",
        "meta_epoch": "2025-12-26T04:47:14.989920",
        "meta_mean_motion": 14.19687619,
        "meta_eccentricity": 0.000159,
        "meta_inclination": 98.9915,
        "meta_ra_of_asc_node": 326.7122,
        "meta_arg_of_pericenter": 145.0249,
        "meta_mean_anomaly": 215.1031,
        "meta_ephemeris_type": 0,
        "meta_classification_type": "U",
        "meta_norad_cat_id": 43010,
        "meta_element_set_no": 999,
        "meta_rev_at_epoch": 42044,
        "meta_bstar": 0.00010603,
        "meta_mean_motion_dot": 1.78e-06,
        "meta_mean_motion_ddot": 0,
        "tle_line1": "1 43010U 17072A   25360.19947905  .00000178  00000+0  10603-3 0  9993",
        "tle_line2": "2 43010  98.9915 326.7122 0001590 145.0249 215.1031 14.19687619420443"
      },
      "geometry": {
        "type": "Point",
        "coordinates": [
          -4.848531974682405,
          -71.4980916206742
        ]
      }
    },
    {
      "type": "Feature",
      "properties": {
        "norad_id": 43013,
        "name": "NOAA 20 (JPSS-1)",
        "group": "weather",
        "lat": 68.69839146697217,
        "lon": -86.75369337858795,
        "alt_km": 818.752379527562,
        "timestamp": "2025-12-26T09:30:53.270202+00:00",
        "meta_object_name": "NOAA 20 (JPSS-1)",
        "meta_object_id": "2017-073A",
        "meta_epoch": "2025-12-26T02:25:02.482752",
        "meta_mean_motion": 14.19529242,
        "meta_eccentricity": 0.0002065,
        "meta_inclination": 98.7616,
        "meta_ra_of_asc_node": 296.2523,
        "meta_arg_of_pericenter": 68.2187,
        "meta_mean_anomaly": 291.9208,
        "meta_ephemeris_type": 0,
        "meta_classification_type": "U",
        "meta_norad_cat_id": 43013,
        "meta_element_set_no": 999,
        "meta_rev_at_epoch": 41991,
        "meta_bstar": 6.6277e-05,
        "meta_mean_motion_dot": 9.6e-07,
        "meta_mean_motion_ddot": 0,
        "tle_line1": "1 43013U 17073A   25360.10072318  .00000096  00000+0  66277-4 0  9993",
        "tle_line2": "2 43013  98.7616 296.2523 0002065  68.2187 291.9208 14.19529242419918"
      },
      "geometry": {
        "type": "Point",
        "coordinates": [
          -86.75369337858795,
          68.69839146697217
        ]
      }
    },
    {
      "type": "Feature",
      "properties": {
        "norad_id": 43226,
        "name": "GOES 17",
        "group": "weather",
        "lat": 0.4349383022615032,
        "lon": 148.33105498283962,
        "alt_km": 35794.99674720879,
        "timestamp": "2025-12-26T09:30:53.270215+00:00",
        "meta_object_name": "GOES 17",
        "meta_object_id": "2018-022A",
        "meta_epoch": "2025-12-26T04:59:55.516416",
        "meta_mean_motion": 1.00271633,
        "meta_eccentricity": 0.0003164,
        "meta_inclination": 0.4904,
        "meta_ra_of_asc_node": 89.0248,
        "meta_arg_of_pericenter": 191.0823,
        "meta_mean_anomaly": 160.3327,
        "meta_ephemeris_type": 0,
        "meta_classification_type": "U",
        "meta_norad_cat_id": 43226,
        "meta_element_set_no": 999,
        "meta_rev_at_epoch": 2868,
        "meta_bstar": 0,
        "meta_mean_motion_dot": -1.61e-06,
        "meta_mean_motion_ddot": 0,
        "tle_line1": "1 43226U 18022A   25360.20828144 -.00000161  00000+0  00000+0 0  9992",
        "tle_line2": "2 43226   0.4904  89.0248 0003164 191.0823 160.3327  1.00271633 28684"
      },
      "geometry": {
        "type": "Point",
        "coordinates": [
          148.33105498283962,
          0.4349383022615032
        ]
      }
    },
    {
      "type": "Feature",
      "properties": {
        "norad_id": 43491,
        "name": "FENGYUN 2H",
        "group": "weather",
        "lat": -2.158942884850307,
        "lon": -42.8111191849715,
        "alt_km": 35783.10681679797,
        "timestamp": "2025-12-26T09:30:53.270227+00:00",
        "meta_object_name": "FENGYUN 2H",
        "meta_object_id": "2018-050A",
        "meta_epoch": "2025-12-26T03:07:59.935584",
        "meta_mean_motion": 1.00270255,
        "meta_eccentricity": 0.0002434,
        "meta_inclination": 2.5832,
        "meta_ra_of_asc_node": 81.1875,
        "meta_arg_of_pericenter": 166.8758,
        "meta_mean_anomaly": 333.148,
        "meta_ephemeris_type": 0,
        "meta_classification_type": "U",
        "meta_norad_cat_id": 43491,
        "meta_element_set_no": 999,
        "meta_rev_at_epoch": 2770,
        "meta_bstar": 0,
        "meta_mean_motion_dot": -1.08e-06,
        "meta_mean_motion_ddot": 0,
        "tle_line1": "1 43491U 18050A   25360.13055481 -.00000108  00000+0  00000+0 0  9996",
        "tle_line2": "2 43491   2.5832  81.1875 0002434 166.8758 333.1480  1.00270255 27707"
      },
      "geometry": {
        "type": "Point",
        "coordinates": [
          -42.8111191849715,
          -2.158942884850307
        ]
      }
    },
    {
      "type": "Feature",
      "properties": {
        "norad_id": 43689,
        "name": "METOP-C",
        "group": "weather",
        "lat": -51.553783344158255,
        "lon": 69.06398673535632,
        "alt_km": 827.0509520526648,
        "timestamp": "2025-12-26T09:30:53.270238+00:00",
        "meta_object_name": "METOP-C",
        "meta_object_id": "2018-087A",
        "meta_epoch": "2025-12-26T03:00:12.833856",
        "meta_mean_motion": 14.21489355,
        "meta_eccentricity": 5.77e-05,
        "meta_inclination": 98.6911,
        "meta_ra_of_asc_node": 57.6884,
        "meta_arg_of_pericenter": 13.664,
        "meta_mean_anomaly": 346.4552,
        "meta_ephemeris_type": 0,
        "meta_classification_type": "U",
        "meta_norad_cat_id": 43689,
        "meta_element_set_no": 999,
        "meta_rev_at_epoch": 37024,
        "meta_bstar": 7.8523e-05,
        "meta_mean_motion_dot": 1.28e-06,
        "meta_mean_motion_ddot": 0,
        "tle_line1": "1 43689U 18087A   25360.12514854  .00000128  00000+0  78523-4 0  9999",
        "tle_line2": "2 43689  98.6911  57.6884 0000577  13.6640 346.4552 14.21489355370240"
      },
      "geometry": {
        "type": "Point",
        "coordinates": [
          69.06398673535632,
          -51.553783344158255
        ]
      }
    }
  ]
}